{"type":"FeatureCollection","features":[{"type":"Feature","geometry":{"type":"Point","coordinates":[15.20828013078099,46.81784341210052]},"properties":{"FID":0,"field_1":"DLBG","field_2":516266.0855,"field_3":186019.057,"field_4":430.5476,"__id":0},"id":0},{"type":"Feature","geometry":{"type":"Point","coordinates":[15.877686714201175,46.95745249631963]},"properties":{"FID":1,"field_1":"FLDB","field_2":567172.4721,"field_3":201890.2255,"field_4":348.2658,"__id":1},"id":1},{"type":"Feature","geometry":{"type":"Point","coordinates":[13.845508895313154,46.611302906130526]},"properties":{"FID":2,"field_1":"VLCH","field_2":411939.9646,"field_3":163686.9618,"field_4":572.0714,"__id":2},"id":2},{"type":"Feature","geometry":{"type":"Point","coordinates":[14.621168210538995,46.665715441972544]},"properties":{"FID":3,"field_1":"VLKM","field_2":471383.4132,"field_3":169157.4203,"field_4":527.3068,"__id":3},"id":3}]}
