{"type":"FeatureCollection","features":[{"type":"Feature","geometry":{"type":"Point","coordinates":[14.205951614859123,45.79430686786047]},"properties":{"FID":0,"OBJECTID":1,"Station":"Postojnska jama","StationID":"SŠ1 - POST 1","GK_X":438641,"GK_Y":72536,"Measuremen":"TM72","Equipment":"Extensometer","Author":"Prof. Stanka Šebela","Project":"RI-SI-EPOS","Sensor":"TM 72 extensometer","Period":"since 9.3.2020","Status":"In progress","Frequency":"1 per day","Biblio":" ","__id":0},"id":0},{"type":"Feature","geometry":{"type":"Point","coordinates":[14.203259363952617,45.79552946633435]},"properties":{"FID":1,"OBJECTID":2,"Station":"Postojnska jama","StationID":"SŠ2 - POST 2","GK_X":438433,"GK_Y":72674,"Measuremen":"TM72","Equipment":"Extensometer","Author":"Prof. Stanka Šebela","Project":"RI-SI-EPOS","Sensor":"TM 72 extensometer","Period":"since 9.3.2020","Status":"In progress","Frequency":"1 per day","Biblio":" ","__id":1},"id":1},{"type":"Feature","geometry":{"type":"Point","coordinates":[14.20500209560381,45.79236581242261]},"properties":{"FID":2,"OBJECTID":3,"Station":"Postojnska jama","StationID":"SŠ3 - POST 3","GK_X":438565,"GK_Y":72321,"Measuremen":"TM72","Equipment":"Extensometer","Author":"Prof. Stanka Šebela","Project":"RI-SI-EPOS","Sensor":"TM 72 extensometer","Period":"since 9.3.2020","Status":"In progress","Frequency":"1 per day","Biblio":" ","__id":2},"id":2},{"type":"Feature","geometry":{"type":"Point","coordinates":[14.20621661786794,45.791978094313755]},"properties":{"FID":3,"OBJECTID":4,"Station":"Postojnska jama","StationID":"SŠ4 - POST 4","GK_X":438659,"GK_Y":72277,"Measuremen":"TM72","Equipment":"Extensometer","Author":"Prof. Stanka Šebela","Project":"RI-SI-EPOS","Sensor":"TM 72 extensometer","Period":"since 9.3.2020","Status":"In progress","Frequency":"1 per day","Biblio":" ","__id":3},"id":3},{"type":"Feature","geometry":{"type":"Point","coordinates":[15.434225289358018,45.837979953084684]},"properties":{"FID":4,"OBJECTID":5,"Station":"Kostanjeviska jama","StationID":"KJ","GK_X":534102,"GK_Y":77177,"Measuremen":"TM72","Equipment":"Extensometer","Author":"Prof. Stanka Šebela","Project":"RI-SI-EPOS","Sensor":"TM 72 extensometer","Period":"Since 11.3.2020","Status":"In progress","Frequency":"1 per day","Biblio":" ","__id":4},"id":4},{"type":"Feature","geometry":{"type":"Point","coordinates":[14.213007881415882,45.775472206152685]},"properties":{"FID":5,"OBJECTID":6,"Station":"IZRK ZRC SAZU, Postojna","StationID":"POST","GK_X":439169,"GK_Y":70437.4,"Measuremen":"Seisms","Equipment":"Portable seismic station","Author":"Prof. Stanka Šebela","Project":"RI-SI-EPOS","Sensor":"temporal seismic station, Kinemetrics","Period":"since 22.5.2020","Status":"On going","Frequency":" ","Biblio":"Šebela, S., Tasič, I., Pahor, J. , Mali, M., Novak, U., Aljančič, M.. Development of SLO KARST Near Fault Observatory site in SW Slovenia. Carbonates Evaporites 38, 43. https://doi.org/10.1007/s13146-023-00864-y","__id":5},"id":5},{"type":"Feature","geometry":{"type":"Point","coordinates":[14.21171251077618,45.70110699959367]},"properties":{"FID":6,"OBJECTID":7,"Station":"Muzej presihajočih jezer, Slovenska vas","StationID":"MPJP","GK_X":438987,"GK_Y":62173.9,"Measuremen":"Seisms","Equipment":"Portable seismic station","Author":"Prof. Stanka Šebela","Project":"RI-SI-EPOS","Sensor":"temporal seismic station, Kinemetrics","Period":"15.7.2020 - 02.06.2023","Status":"Completed","Frequency":" ","Biblio":"Šebela, S., Tasič, I., Pahor, J. , Mali, M., Novak, U., Aljančič, M.. Development of SLO KARST Near Fault Observatory site in SW Slovenia. Carbonates Evaporites 38, 43. https://doi.org/10.1007/s13146-023-00864-y","__id":6},"id":6},{"type":"Feature","geometry":{"type":"Point","coordinates":[14.27347258487468,45.50063068921906]},"properties":{"FID":7,"OBJECTID":8,"Station":"OŠ Jelšane, Jelšane","StationID":"JLSP","GK_X":443595,"GK_Y":39849.4,"Measuremen":"Seisms","Equipment":"Portable seismic station","Author":"Prof. Stanka Šebela","Project":"RI-SI-EPOS","Sensor":"temporal seismic station, Kinemetrics","Period":"since 14.7.2020","Status":"On going","Frequency":" ","Biblio":"Šebela, S., Tasič, I., Pahor, J. , Mali, M., Novak, U., Aljančič, M.. Development of SLO KARST Near Fault Observatory site in SW Slovenia. Carbonates Evaporites 38, 43. https://doi.org/10.1007/s13146-023-00864-y","__id":7},"id":7},{"type":"Feature","geometry":{"type":"Point","coordinates":[14.373100241459959,45.62915996989321]},"properties":{"FID":8,"OBJECTID":9,"Station":"Mašun 10","StationID":"MASE","GK_X":451492,"GK_Y":54067.5,"Measuremen":"Seisms","Equipment":"Portable seismic station","Author":"Prof. Stanka Šebela","Project":"RI-SI-EPOS","Sensor":"Temporal seismic station, Kinemetrics","Period":"Since 13.8.2020","Status":"On going","Frequency":" ","Biblio":"Šebela, S., Tasič, I., Pahor, J. , Mali, M., Novak, U., Aljančič, M.. Development of SLO KARST Near Fault Observatory site in SW Slovenia. Carbonates Evaporites 38, 43. https://doi.org/10.1007/s13146-023-00864-y","__id":8},"id":8},{"type":"Feature","geometry":{"type":"Point","coordinates":[14.468965753635342,45.68273415767537]},"properties":{"FID":9,"OBJECTID":10,"Station":"Grad Snežnik","StationID":"GSNE","GK_X":459006,"GK_Y":59967.5,"Measuremen":"Seisms","Equipment":"Portable seismic station","Author":"Prof. Stanka Šebela","Project":"RI-SI-EPOS","Sensor":"Temporal seismic station, Kinemetrics","Period":"since 26.8.2020","Status":"On going","Frequency":" ","Biblio":"Šebela, S., Tasič, I., Pahor, J. , Mali, M., Novak, U., Aljančič, M.. Development of SLO KARST Near Fault Observatory site in SW Slovenia. Carbonates Evaporites 38, 43. https://doi.org/10.1007/s13146-023-00864-y","__id":9},"id":9},{"type":"Feature","geometry":{"type":"Point","coordinates":[14.244376152822051,45.56375915668957]},"properties":{"FID":10,"OBJECTID":11,"Station":"Občina Ilirska Bistrica","StationID":"ILBA","GK_X":441387,"GK_Y":46885.8,"Measuremen":"Seisms","Equipment":"Portable seismic station","Author":"Prof. Stanka Šebela","Project":"RI-SI-EPOS","Sensor":"part of very broad band seismic station, Nanometrics","Period":"01.09.2020 - 01.12.2023","Status":"Completed","Frequency":" ","Biblio":"Šebela, S., Tasič, I., Pahor, J. , Mali, M., Novak, U., Aljančič, M.. Development of SLO KARST Near Fault Observatory site in SW Slovenia. Carbonates Evaporites 38, 43. https://doi.org/10.1007/s13146-023-00864-y","__id":10},"id":10},{"type":"Feature","geometry":{"type":"Point","coordinates":[14.20500209560381,45.79236581242261]},"properties":{"FID":11,"OBJECTID":12,"Station":"Postojnska jama","StationID":"near Postojna 2","GK_X":438565,"GK_Y":72321,"Measuremen":"Methane","Equipment":"Spectrometer for methan","Author":"Prof. Stanka Šebela","Project":"RI-SI-EPOS","Sensor":"Opsis","Period":"since 9.9.2020","Status":"In progress","Frequency":"15 minutes","Biblio":"ŠEBELA, Stanka. 2021. http://fgg-web.fgg.uni-lj.si/sugg/referati/2021/SZGG_Zbornik_2021_E_publikacija.pdf. ","__id":11},"id":11},{"type":"Feature","geometry":{"type":"Point","coordinates":[14.213007881415882,45.775472206152685]},"properties":{"FID":12,"OBJECTID":13,"Station":"IZRK ZRC SAZU","StationID":"IZRK","GK_X":439169,"GK_Y":70437.4,"Measuremen":"Gravimetry","Equipment":"Gravimeter","Author":"Prof Franci Gabrovšek","Project":"RI-SI-EPOS","Sensor":"Scintrex CG-6","Period":"since 10.4.2020","Status":" ","Frequency":" ","Biblio":"ŠEBELA, Stanka. 2021. http://fgg-web.fgg.uni-lj.si/sugg/referati/2021/SZGG_Zbornik_2021_E_publikacija.pdf. ","__id":12},"id":12},{"type":"Feature","geometry":{"type":"Point","coordinates":[15.248038666940836,45.50211030133918]},"properties":{"FID":13,"OBJECTID":14,"Station":"Bojanci","StationID":"Bojanci","GK_X":39757.422,"GK_Y":519697.68,"Measuremen":" ","Equipment":"Broadband seismic station","Author":"Prof. Stanka Šebela","Project":"RI-SI-EPOS","Sensor":" ","Period":" ","Status":" ","Frequency":" ","Biblio":" ","__id":13},"id":13},{"type":"Feature","geometry":{"type":"Point","coordinates":[14.256246880446344,45.67622029444184]},"properties":{"Equipment":"Portable seismic station","OBJECTID":null,"Station":"OŠ Palčje","StationID":"PLCP","GK_X":null,"GK_Y":null,"Measuremen":"Seisms","Author":"Prof. Stanka Šebela","Project":"RI-SI-EPOS","Sensor":"Temporal seismic station, Kinemetrics","Period":"since 2.6.2022","Status":"On going","Frequency":null,"Biblio":"Šebela, S., Tasič, I., Pahor, J. , Mali, M., Novak, U., Aljančič, M.. Development of SLO KARST Near Fault Observatory site in SW Slovenia. Carbonates Evaporites 38, 43. https://doi.org/10.1007/s13146-023-00864-y","FID":14,"__id":14},"id":14},{"type":"Feature","geometry":{"type":"Point","coordinates":[14.188548259550439,45.668207837763475]},"properties":{"Equipment":"Portable seismic station","OBJECTID":null,"Station":"Park of Military History Pivka","StationID":"PVZ","GK_X":null,"GK_Y":null,"Measuremen":"Seism","Author":"Stanka Šebela","Project":"RI-SI-EPOS","Sensor":null,"Period":"Since14.07.2020","Status":"On going","Frequency":null,"Biblio":"Šebela, S., Tasič, I., Pahor, J. , Mali, M., Novak, U., Aljančič, M.. Development of SLO KARST Near Fault Observatory site in SW Slovenia. Carbonates Evaporites 38, 43. https://doi.org/10.1007/s13146-023-00864-y","FID":15,"__id":15},"id":15},{"type":"Feature","geometry":{"type":"Point","coordinates":[14.20478412361665,45.792646514277315]},"properties":{"Equipment":"Portable seismic station","OBJECTID":null,"Station":"Postojnska jama","StationID":"PPTJ1","GK_X":null,"GK_Y":null,"Measuremen":"Seism","Author":"Prof. Stanka Šebela","Project":"RI-SI-EPOS","Sensor":"Temporal seismic station, Kinemetrics","Period":"01.12.2023","Status":"On going","Frequency":null,"Biblio":"Šebela, S., Tasič, I., Pahor, J. , Mali, M., Novak, U., Aljančič, M.. Development of SLO KARST Near Fault Observatory site in SW Slovenia. Carbonates Evaporites 38, 43. https://doi.org/10.1007/s13146-023-00864-y","FID":17,"__id":16},"id":16}]}
