{"type":"FeatureCollection","features":[{"type":"Feature","geometry":{"type":"Point","coordinates":[14.06429996079898,45.89339999620981]},"properties":{"Name1":"JAVS","Name2":"Javornik","Lat":45.8934,"Long":14.0643,"__OBJECTID":0,"__id":0},"id":0},{"type":"Feature","geometry":{"type":"Point","coordinates":[14.443399970143885,45.93479997772557]},"properties":{"Name1":"GBAS","Name2":"Gornja Brezovica","Lat":45.9348,"Long":14.4434,"__OBJECTID":1,"__id":1},"id":1},{"type":"Feature","geometry":{"type":"Point","coordinates":[14.422100016442128,45.73809997367533]},"properties":{"Name1":"CEY","Name2":"Cerknica","Lat":45.7381,"Long":14.4221,"__OBJECTID":2,"__id":2},"id":2},{"type":"Feature","geometry":{"type":"Point","coordinates":[14.014300001579473,45.54639798072768]},"properties":{"Name1":"SKDS","Name2":"Skadanscina","Lat":45.546398,"Long":14.0143,"__OBJECTID":3,"__id":3},"id":3},{"type":"Feature","geometry":{"type":"Point","coordinates":[14.38069998876361,45.52780200233135]},"properties":{"Name1":"KNDS","Name2":"Knezji Dol","Lat":45.527802,"Long":14.3807,"__OBJECTID":4,"__id":4},"id":4}]}
