{"type":"FeatureCollection","features":[{"type":"Feature","geometry":{"type":"Point","coordinates":[16.08536822473677,46.74511415154592]},"properties":{"FID":0,"field_1":"BODO","field_2":583305.0907,"field_3":178485.6519,"field_4":340.2169,"__id":0},"id":0},{"type":"Feature","geometry":{"type":"Point","coordinates":[13.537153190886286,46.33688740204766]},"properties":{"FID":1,"field_1":"BOVC","field_2":387755.9663,"field_3":133578.086,"field_4":485.8483,"__id":1},"id":1},{"type":"Feature","geometry":{"type":"Point","coordinates":[15.58774647309876,45.90865385213441]},"properties":{"FID":2,"field_1":"BRZC","field_2":545972.3901,"field_3":85110.5046,"field_4":222.436,"__id":2},"id":2},{"type":"Feature","geometry":{"type":"Point","coordinates":[15.236774691593261,46.2461185908363]},"properties":{"FID":3,"field_1":"CELJ","field_2":518630.5732,"field_3":122476.9405,"field_4":295.1426,"__id":3},"id":3},{"type":"Feature","geometry":{"type":"Point","coordinates":[15.188544143988885,45.582970760189625]},"properties":{"FID":4,"field_1":"CRNM","field_2":515085.5209,"field_3":48765.2516,"field_4":236.3838,"__id":4},"id":4},{"type":"Feature","geometry":{"type":"Point","coordinates":[14.538864564207966,46.05244153974106]},"properties":{"FID":5,"field_1":"GSR1","field_2":464688.6085,"field_3":101026.815,"field_4":351.6721,"__id":5},"id":5},{"type":"Feature","geometry":{"type":"Point","coordinates":[14.024875508093299,46.00793561917728]},"properties":{"FID":6,"field_1":"IDRI","field_2":424854.2143,"field_3":96439.5813,"field_4":378.5169,"__id":6},"id":6},{"type":"Feature","geometry":{"type":"Point","coordinates":[14.243462566178103,45.57145162971533]},"properties":{"FID":7,"field_1":"ILIB","field_2":441323.5171,"field_3":47746.0085,"field_4":494.6074,"__id":7},"id":7},{"type":"Feature","geometry":{"type":"Point","coordinates":[13.719699839772215,45.55238831605578]},"properties":{"FID":8,"field_1":"KOPE","field_2":400408.4789,"field_3":46146.0109,"field_4":52.7031,"__id":8},"id":8},{"type":"Feature","geometry":{"type":"Point","coordinates":[16.442349735493025,46.569108213822346]},"properties":{"FID":9,"field_1":"LEND","field_2":610939.7685,"field_3":159360.2766,"field_4":219.9101,"__id":9},"id":9},{"type":"Feature","geometry":{"type":"Point","coordinates":[15.643909144661912,46.56653904917044]},"properties":{"FID":10,"field_1":"MRBR","field_2":549735.9953,"field_3":158265.467,"field_4":342.9379,"__id":10},"id":10},{"type":"Feature","geometry":{"type":"Point","coordinates":[13.619807180178125,45.900615105775586]},"properties":{"FID":11,"field_1":"NOVG","field_2":393277.3227,"field_3":84976.0016,"field_4":110.1234,"__id":11},"id":11},{"type":"Feature","geometry":{"type":"Point","coordinates":[15.876312291816474,46.42086155081085]},"properties":{"FID":12,"field_1":"PTUJ","field_2":567732.0302,"field_3":142245.0834,"field_4":283.97,"__id":12},"id":12},{"type":"Feature","geometry":{"type":"Point","coordinates":[14.166647626233042,46.34806868064928]},"properties":{"FID":13,"field_1":"RDVL","field_2":436230.4182,"field_3":134118.8713,"field_4":554.3139,"__id":13},"id":13},{"type":"Feature","geometry":{"type":"Point","coordinates":[15.075176755133,46.51610074666323]},"properties":{"FID":14,"field_1":"SLOG","field_2":506141.0138,"field_3":152460.5392,"field_4":471.8822,"__id":14},"id":14},{"type":"Feature","geometry":{"type":"Point","coordinates":[15.003338481861963,45.911654019013646]},"properties":{"FID":15,"field_1":"TRBN","field_2":500631.8488,"field_3":85276.0885,"field_4":331.694,"__id":15},"id":15}]}
