{"type":"FeatureCollection","features":[{"type":"Feature","geometry":{"type":"Point","coordinates":[14.213009678046449,45.77547095305325]},"properties":{"FID":0,"Station":"IZRK ZRC SAZU, Postojna","StationID":"POST","Measuremen":"Seisms","Equipment":"Portable seismic station","Author":"Prof. Stanka Šebela","Project":"RI-SI-EPOS","Sensor":"Temporal seismic station, Kinemetrics","Period":"since 22.5.2020","Status":"On going","Frequency":" ","Biblio":"Šebela, S., Tasič, I., Pahor, J. , Mali, M., Novak, U., Aljančič, M.. Development of SLO KARST Near Fault Observatory site in SW Slovenia. Carbonates Evaporites 38, 43. https://doi.org/10.1007/s13146-023-00864-y","__id":0},"id":0},{"type":"Feature","geometry":{"type":"Point","coordinates":[14.211716104037317,45.70110637220896]},"properties":{"FID":1,"Station":"Muzej presihajočih jezer, Slovenska vas","StationID":"MPJP","Measuremen":"Seisms","Equipment":"Portable seismic station","Author":"Prof. Stanka Šebela","Project":"RI-SI-EPOS","Sensor":"Temporal seismic station, Kinemetrics","Period":"15.7.2020 - 02.06.2023","Status":"Completed","Frequency":" ","Biblio":"Šebela, S., Tasič, I., Pahor, J. , Mali, M., Novak, U., Aljančič, M.. Development of SLO KARST Near Fault Observatory site in SW Slovenia. Carbonates Evaporites 38, 43. https://doi.org/10.1007/s13146-023-00864-y","__id":1},"id":1},{"type":"Feature","geometry":{"type":"Point","coordinates":[14.273475279820534,45.50063131884949]},"properties":{"FID":2,"Station":"OŠ Jelšane, Jelšane","StationID":"JLSP","Measuremen":"Seisms","Equipment":"Portable seismic station","Author":"Prof. Stanka Šebela","Project":"RI-SI-EPOS","Sensor":"Temporal seismic station, Kinemetrics","Period":"since 14.7.2020","Status":"On going","Frequency":" ","Biblio":"Šebela, S., Tasič, I., Pahor, J. , Mali, M., Novak, U., Aljančič, M.. Development of SLO KARST Near Fault Observatory site in SW Slovenia. Carbonates Evaporites 38, 43. https://doi.org/10.1007/s13146-023-00864-y","__id":2},"id":2},{"type":"Feature","geometry":{"type":"Point","coordinates":[14.37309844482939,45.629161854467796]},"properties":{"FID":3,"Station":"Mašun 10","StationID":"MASE","Measuremen":"Seisms","Equipment":"Portable seismic station","Author":"Prof. Stanka Šebela","Project":"RI-SI-EPOS","Sensor":"Temporal seismic station, Kinemetrics","Period":"Since 13.8.2020","Status":"On going","Frequency":" ","Biblio":"Šebela, S., Tasič, I., Pahor, J. , Mali, M., Novak, U., Aljančič, M.. Development of SLO KARST Near Fault Observatory site in SW Slovenia. Carbonates Evaporites 38, 43. https://doi.org/10.1007/s13146-023-00864-y","__id":3},"id":3},{"type":"Feature","geometry":{"type":"Point","coordinates":[14.468966651950625,45.682733530084526]},"properties":{"FID":4,"Station":"Grad Snežnik","StationID":"GSNE","Measuremen":"Seisms","Equipment":"Portable seismic station","Author":"Prof. Stanka Šebela","Project":"RI-SI-EPOS","Sensor":"Temporal seismic station, Kinemetrics","Period":"since 26.8.2020","Status":"On going","Frequency":" ","Biblio":"Šebela, S., Tasič, I., Pahor, J. , Mali, M., Novak, U., Aljančič, M.. Development of SLO KARST Near Fault Observatory site in SW Slovenia. Carbonates Evaporites 38, 43. https://doi.org/10.1007/s13146-023-00864-y","__id":4},"id":4},{"type":"Feature","geometry":{"type":"Point","coordinates":[14.244378847767905,45.56376041453779]},"properties":{"FID":5,"Station":"Občina Ilirska Bistrica","StationID":"ILBA","Measuremen":"Seisms","Equipment":"Portable seismic station","Author":"Prof. Stanka Šebela","Project":"RI-SI-EPOS","Sensor":"Part of very broad band seismic station, Nanometrics","Period":"01.09.2020 - 01.12.2023","Status":"Completed","Frequency":" ","Biblio":"Šebela, S., Tasič, I., Pahor, J. , Mali, M., Novak, U., Aljančič, M.. Development of SLO KARST Near Fault Observatory site in SW Slovenia. Carbonates Evaporites 38, 43. https://doi.org/10.1007/s13146-023-00864-y","__id":5},"id":5},{"type":"Feature","geometry":{"type":"Point","coordinates":[15.248039565256121,45.502110930953066]},"properties":{"FID":6,"Station":"Bojanci","StationID":"Bojanci","Measuremen":"Seisms","Equipment":"Broadband seismic station","Author":"Prof. Stanka Šebela","Project":"RI-SI-EPOS","Sensor":"Broadband seismic station","Period":" ","Status":"On going","Frequency":" ","Biblio":"Šebela, S., Tasič, I., Pahor, J. , Mali, M., Novak, U., Aljančič, M.. Development of SLO KARST Near Fault Observatory site in SW Slovenia. Carbonates Evaporites 38, 43. https://doi.org/10.1007/s13146-023-00864-y","__id":6},"id":6},{"type":"Feature","geometry":{"type":"Point","coordinates":[14.256245592671121,45.676218757848076]},"properties":{"FID":7,"Station":"OŠ Palčje","StationID":"PLCP","Measuremen":"Seisms","Equipment":"Portable seismic station","Author":"Prof. Stanka Šebela","Project":"RI-SI-EPOS","Sensor":"Temporal seismic station, Kinemetrics","Period":"since 2.6.2022","Status":"On going","Frequency":" ","Biblio":"Šebela, S., Tasič, I., Pahor, J. , Mali, M., Novak, U., Aljančič, M.. Development of SLO KARST Near Fault Observatory site in SW Slovenia. Carbonates Evaporites 38, 43. https://doi.org/10.1007/s13146-023-00864-y","__id":7},"id":7},{"type":"Feature","geometry":{"type":"Point","coordinates":[14.188548552859876,45.6682091930747]},"properties":{"FID":8,"Station":"Park of Military History Pivka","StationID":"PVZ","Measuremen":"Seisms","Equipment":"Portable seismic station","Author":"Prof. Stanka Šebela","Project":"RI-SI-EPOS","Sensor":"Temporal seismic station, Kinemetrics","Period":"Since14.07.2020","Status":"On going","Frequency":" ","Biblio":"Šebela, S., Tasič, I., Pahor, J. , Mali, M., Novak, U., Aljančič, M.. Development of SLO KARST Near Fault Observatory site in SW Slovenia. Carbonates Evaporites 38, 43. https://doi.org/10.1007/s13146-023-00864-y","__id":8},"id":8}]}
