{"type":"FeatureCollection","features":[{"type":"Feature","geometry":{"type":"Point","coordinates":[15.503960606548933,46.498956014064014]},"properties":{"FID":0,"field_1":"ARA2","field_2":539055.0716,"field_3":150675.6252,"field_4":1292.0753,"__id":0},"id":0},{"type":"Feature","geometry":{"type":"Point","coordinates":[13.555936963477224,46.06930899317804]},"properties":{"FID":1,"field_1":"KDA2","field_2":388660.7904,"field_3":103812.2455,"field_4":858.0429,"__id":1},"id":1},{"type":"Feature","geometry":{"type":"Point","coordinates":[16.24569953664642,46.4525769533522]},"properties":{"FID":2,"field_1":"KGA1","field_2":596070.0086,"field_3":146151.4,"field_4":292.3473,"__id":2},"id":2},{"type":"Feature","geometry":{"type":"Point","coordinates":[13.719699839772215,45.55238831605578]},"properties":{"FID":3,"field_1":"KOPE","field_2":400408.4789,"field_3":46146.0109,"field_4":52.7031,"__id":3},"id":3},{"type":"Feature","geometry":{"type":"Point","coordinates":[15.255890840839324,45.59510353269024]},"properties":{"FID":4,"field_1":"PZA1","field_2":520337.0862,"field_3":50127.9443,"field_4":212.7319,"__id":4},"id":4},{"type":"Feature","geometry":{"type":"Point","coordinates":[14.831167374507615,45.95909758138482]},"properties":{"FID":5,"field_1":"STA1","field_2":487285.8198,"field_3":90563.279,"field_4":390.3146,"__id":5},"id":5}]}
