{"type":"FeatureCollection","features":[{"type":"Feature","geometry":{"type":"Point","coordinates":[16.434327780005837,46.39148219100928]},"properties":{"FID":0,"field_1":"CAKO","field_2":610683.7336,"field_3":139606.501,"field_4":222.0698,"__id":0},"id":0},{"type":"Feature","geometry":{"type":"Point","coordinates":[14.79624985941389,45.39750431790265]},"properties":{"FID":1,"field_1":"DELN","field_2":484420.2131,"field_3":28156.8361,"field_4":776.0512,"__id":1},"id":1},{"type":"Feature","geometry":{"type":"Point","coordinates":[15.549621972440727,45.4964378239303]},"properties":{"FID":2,"field_1":"KARL","field_2":543328.8314,"field_3":39277.7708,"field_4":174.1479,"__id":2},"id":2},{"type":"Feature","geometry":{"type":"Point","coordinates":[13.590207691566384,45.230289452696404]},"properties":{"FID":3,"field_1":"PORE","field_2":389670.9419,"field_3":10521.4994,"field_4":66.2049,"__id":3},"id":3},{"type":"Feature","geometry":{"type":"Point","coordinates":[14.341360965841446,45.37009016365443]},"properties":{"FID":4,"field_1":"RIJE","field_2":448781.3157,"field_3":25300.7646,"field_4":330.6246,"__id":4},"id":4},{"type":"Feature","geometry":{"type":"Point","coordinates":[15.904492442279302,46.034408986064065]},"properties":{"FID":5,"field_1":"ZABO","field_2":570387.7065,"field_3":99317.18,"field_4":222.229,"__id":5},"id":5}]}
