{"type":"FeatureCollection","features":[{"type":"Feature","geometry":{"type":"Point","coordinates":[13.334214785050847,45.83216991180505]},"properties":{"FID":0,"field_1":"RCER","field_2":370958.2628,"field_3":77792.0729,"field_4":59.664,"__id":0},"id":0},{"type":"Feature","geometry":{"type":"Point","coordinates":[13.193287083278173,46.41098347709972]},"properties":{"FID":1,"field_1":"RMOG","field_2":361471.9858,"field_3":142360.1065,"field_4":377.954,"__id":1},"id":1},{"type":"Feature","geometry":{"type":"Point","coordinates":[13.222500296317744,46.059055741487676]},"properties":{"FID":2,"field_1":"RUDI","field_2":362841.3773,"field_3":103195.2377,"field_4":180.5719,"__id":2},"id":2}]}
