{"type":"FeatureCollection","features":[{"type":"Feature","geometry":{"type":"Polygon","coordinates":[[[15.307091218773001,45.62986416819037],[15.352590887913655,45.65175397690174],[15.356627018485204,45.712009255214056],[15.288645212728893,45.70054486007315],[15.294027019596053,45.73430022134468],[15.315836318063907,45.75666439927148],[15.333891556959424,45.76639150860003],[15.499444775615663,45.83582699765078],[15.61180066146163,45.846736115689914],[15.629718458118676,45.833191391426745],[15.652636277647131,45.823391424451124],[15.696109347506813,45.84305408943283],[15.724444906513794,45.93860886640886],[15.711491200116791,46.05319089814628],[15.663609198842652,46.06798209907023],[15.632918257160709,46.08458187104121],[15.606391006820658,46.115827335630335],[15.60041810849655,46.144299830012926],[15.611945290222371,46.16693595764366],[15.659163436501547,46.22090036404954],[15.685972757840808,46.22596432629124],[15.79778246799403,46.233326996138935],[16.017218434022325,46.29804524539389],[16.08040952436843,46.33603584437],[16.075836201256976,46.35819125332796],[16.07531787333804,46.378418379226765],[16.13791787222719,46.405963863072394],[16.266109259901615,46.41944528737247],[16.252409053503506,46.49556414164552],[16.267499851961432,46.514445245312864],[16.29250894947132,46.530818149055506],[16.33555442125576,46.53388215053996],[16.38416315959475,46.535826879872616],[16.46389133600621,46.52096434013066],[16.49548238960284,46.50569089721253],[16.51779115136867,46.49164513701389],[16.564454138802255,46.4770909569958],[16.591991095521657,46.47400890523958],[16.60787330974489,46.47623601754016],[16.530973029847836,46.509027113095726],[16.408609013421497,46.65888203225809],[16.38555375165457,46.70166415405022],[16.375327330460152,46.722773090800175],[16.359300487476176,46.72020012843645],[16.32527320282901,46.75582701564817],[16.31548246454739,46.794300050695426],[16.337218101161948,46.80916388066997],[16.349027353886985,46.84235407624789],[16.298191691958657,46.869300379009665],[16.269717792397923,46.874444838784335],[16.229445419895562,46.87624531390918],[16.181036107549644,46.86458229723479],[16.139790859594584,46.859164160214966],[16.1118002536567,46.86971799709474],[16.009308767945654,46.83549079127112],[15.988326817854471,46.83159143551409],[15.9879180844002,46.75513586782179],[15.859026909119446,46.72319123178078],[15.832782628093893,46.722218233037445],[15.806663212892833,46.71860936294318],[15.602500403325138,46.68666403854182],[15.406108919280362,46.65250036192429],[15.139444925504764,46.6572179378681],[15.102918527737181,46.65666425598305],[15.074409593880365,46.64857294815838],[15.055136239459582,46.65208228999033],[14.86749973617383,46.61332693151846],[14.833744641057754,46.57069103040567],[14.825000440082135,46.54138198295322],[14.813191187357098,46.51138200209832],[14.545000057598502,46.40749135128068],[14.47805400936478,46.41944528737247],[14.153682241737343,46.44263591648717],[14.128891434841497,46.463053898022],[14.115836218817387,46.47888245081408],[14.082218565939781,46.489164459651974],[13.936944814822544,46.515826893871925],[13.845553811077359,46.52000006285897],[13.7761095480385,46.51832675392813],[13.7186542007815,46.52660934567576],[13.719163545547595,46.518463983271864],[13.711109250710178,46.49277318622852],[13.692009271139229,46.451664070327894],[13.657773577346148,46.44971818588479],[13.511391305168306,46.38471830041792],[13.440835826122992,46.34638202302375],[13.383473005340255,46.29513617038755],[13.418890882047238,46.21305427779821],[13.458953947088396,46.2231912619693],[13.48847348563985,46.23194501726915],[13.550554258294783,46.218044998264915],[13.66603628132948,46.175309282208936],[13.648191248210448,46.145545223938726],[13.593608713232062,46.10527318026945],[13.55736348814841,46.0872821800136],[13.538891430961058,46.07943571556666],[13.521944713126143,46.063326810618456],[13.47971850488082,46.01221812761689],[13.509863270870019,45.98624471421448],[13.540282023020875,45.9683273013598],[13.568954450259403,45.97937334354451],[13.593336523700975,45.993045332820586],[13.635100099574974,45.98200888467891],[13.634718315579223,45.94790883220861],[13.614100183178113,45.90513594992497],[13.59069098518924,45.88811835791168],[13.578327471933905,45.850273359711316],[13.603745302898067,45.808882353223815],[13.69749977415577,45.78416427925371],[13.791527333259843,45.75277333141887],[13.835282474118737,45.717772871780284],[13.918336213712008,45.636391244426996],[13.857218435041652,45.5872181575442],[13.82777345665878,45.58444506344705],[13.80221818345615,45.586391461666],[13.71694470679582,45.596109240670195],[13.74992725076755,45.54901838669555],[13.665835957021121,45.5430543055058],[13.58944502189017,45.5169357563246],[13.591735725864675,45.481700186808894],[13.601390818538388,45.47319100719812],[13.640481906442133,45.4537452707286],[13.67347343356671,45.44569132050533],[13.703609216403065,45.44416421731112],[13.906944677594087,45.453326846552336],[13.952500042282356,45.456664071087346],[13.98826287205844,45.46340030234086],[14.13721791921,45.47527291130082],[14.392500258335804,45.48610890910468],[14.413473225274142,45.49166403769525],[14.496109248260295,45.5436821995498],[14.535000011855681,45.612218225304346],[14.570345125024648,45.66638239984011],[14.609791047465622,45.66843581172137],[14.609582638319706,45.633045199929576],[14.62083583388387,45.612082494759676],[14.723609390594131,45.5313910628786],[14.826090994837056,45.465444766684655],[14.863717828827687,45.46865401663015],[14.912835911932776,45.48249126295129],[14.9790633079392,45.500473281386014],[15.092027353232517,45.47151786906929],[15.156673714338892,45.429291234756924],[15.174454068757472,45.425818101471705],[15.277217743999609,45.462773402427366],[15.303973166421823,45.538626761374104],[15.294000070137528,45.59453592829241],[15.307091218773001,45.62986416819037]]]},"properties":{"FID":0,"FID_":0,"Country":"Slovenia","ISO":"SI","COUNTRYAFF":"Slovenia","AFF_ISO":"SI","PartnerTyp":"Partner","__id":0},"id":0}]}
