{"type":"FeatureCollection","features":[{"type":"Feature","geometry":{"type":"Point","coordinates":[14.209657165406115,45.78296335776021]},"properties":{"FID":0,"OBJECTID":1,"Cave":"Postojnska jama","Station":"BS1","GK_X":438552.1326,"GK_Y":71244.3387,"Measuremen":"Tair","Author":"Prof. Stanka Šebela","Project":"Postojnska jama monitoring","Sensor":"diver Van Essen","Period":"since 13.3.2015  11:00:0013:00:00","Status":"In progress","Frequency":"1 hour","Biblio":"ALJANČIČ & ŠEBELA 2018, https://plus.si.cobiss.net/opac7/bib/43330093","__id":0},"id":0},{"type":"Feature","geometry":{"type":"Point","coordinates":[14.209476604034007,45.78296836948426]},"properties":{"FID":1,"OBJECTID":2,"Cave":"Postojnska jama","Station":"BS2","GK_X":438538.104,"GK_Y":71245.0154,"Measuremen":"Tair","Author":"Prof. Stanka Šebela","Project":"Postojnska jama monitoring","Sensor":"diver Van Essen","Period":"since 13.3.2015  11:00:00","Status":"In progress","Frequency":"1 hour","Biblio":"ALJANČIČ & ŠEBELA 2018, https://plus.si.cobiss.net/opac7/bib/43330093","__id":1},"id":1},{"type":"Feature","geometry":{"type":"Point","coordinates":[14.209683216549356,45.78317322331901]},"properties":{"FID":2,"OBJECTID":3,"Cave":"Postojnska jama","Station":"BS3","GK_X":438554.3819,"GK_Y":71267.6287,"Measuremen":"CO2","Author":"Prof. Stanka Šebela","Project":"Postojnska jama monitoring","Sensor":"Vaisala","Period":"since 20.3.2015  11:00:00","Status":"In progress","Frequency":"1 hour","Biblio":"ALJANČIČ & ŠEBELA 2018, https://plus.si.cobiss.net/opac7/bib/43330093","__id":2},"id":2},{"type":"Feature","geometry":{"type":"Point","coordinates":[14.209809879004416,45.7833548973439]},"properties":{"FID":3,"OBJECTID":4,"Cave":"Postojnska jama","Station":"BS4","GK_X":438564.4408,"GK_Y":71287.6695,"Measuremen":"Tair","Author":"Prof. Stanka Šebela","Project":"Postojnska jama monitoring","Sensor":"diver Van Essen","Period":"1.2.2017  13:00:00 - 1.12.2018 19:00","Status":" ","Frequency":"1 hour","Biblio":"ALJANČIČ & ŠEBELA 2018, https://plus.si.cobiss.net/opac7/bib/43330093","__id":3},"id":3},{"type":"Feature","geometry":{"type":"Point","coordinates":[14.209855693083906,45.78336930594812]},"properties":{"FID":4,"OBJECTID":5,"Cave":"Postojnska jama","Station":"BS5","GK_X":438567.9957,"GK_Y":71289.2806,"Measuremen":"CO2","Author":"Prof. Stanka Šebela","Project":"Postojnska jama monitoring","Sensor":"Vaisala","Period":"28.12.2016  13:00:00 - 3.12.2018 10:00","Status":" ","Frequency":"1 hour","Biblio":"ALJANČIČ & ŠEBELA 2018, https://plus.si.cobiss.net/opac7/bib/43330093","__id":4},"id":4},{"type":"Feature","geometry":{"type":"Point","coordinates":[14.209440671422643,45.78380469462364]},"properties":{"FID":5,"OBJECTID":6,"Cave":"Postojnska jama","Station":"BS6 - Pulpito (Veliki Dom)","GK_X":438536.2548,"GK_Y":71337.9765,"Measuremen":"Tair","Author":"Prof. Stanka Šebela","Project":"Postojnska jama monitoring","Sensor":"diver Van Essen","Period":"since 19.12.2016  13:00:00","Status":"In progress","Frequency":"1 hour","Biblio":"ALJANČIČ & ŠEBELA 2018, https://plus.si.cobiss.net/opac7/bib/43330093; Šebela 2021, https://doi.org/10.1016/B978-0-12-822954-5.00001-9","__id":5},"id":5},{"type":"Feature","geometry":{"type":"Point","coordinates":[14.210635430750521,45.794594356286574]},"properties":{"FID":6,"OBJECTID":7,"Cave":"Postojnska jama","Station":"SŠ1","GK_X":438641,"GK_Y":72536,"Measuremen":"TM71","Author":"Prof. Stanka Šebela","Project":"EPOS","Sensor":"TM 71 extensometer","Period":"26.5.2004 - 9.3.2020","Status":" ","Frequency":"1 per month and 1 per day","Biblio":"ALJANČIČ & ŠEBELA 2018, https://plus.si.cobiss.net/opac7/bib/43330093","__id":6},"id":6},{"type":"Feature","geometry":{"type":"Point","coordinates":[14.207942281528732,45.79581757477443]},"properties":{"FID":7,"OBJECTID":8,"Cave":"Postojnska jama","Station":"SŠ2","GK_X":438433,"GK_Y":72674,"Measuremen":"TM71","Author":"Prof. Stanka Šebela","Project":"EPOS","Sensor":"TM 71 extensometer","Period":"26.2.2004 - 9.3.2020","Status":" ","Frequency":"1 per month and 1 per day","Biblio":"doi: 10.4311/jcks2009es0077","__id":7},"id":7},{"type":"Feature","geometry":{"type":"Point","coordinates":[14.209685911495207,45.79265268450526]},"properties":{"FID":8,"OBJECTID":9,"Cave":"Postojnska jama","Station":"SŠ3","GK_X":438565,"GK_Y":72321,"Measuremen":"TM71","Author":"Prof. Stanka Šebela","Project":"EPOS","Sensor":"TM 71 extensometer","Period":"28.10.2016 - 9.3.2020","Status":" ","Frequency":"1 per month and 1 per day","Biblio":" ","__id":8},"id":8},{"type":"Feature","geometry":{"type":"Point","coordinates":[14.210900433759337,45.79226496839211]},"properties":{"FID":9,"OBJECTID":10,"Cave":"Postojnska jama","Station":"SŠ4","GK_X":438659,"GK_Y":72277,"Measuremen":"TM71","Author":"Prof. Stanka Šebela","Project":"EPOS","Sensor":"TM 71 extensometer","Period":"28.10.2016 - 9.3.2020","Status":" ","Frequency":"1 per month and 1 per day","Biblio":" ","__id":9},"id":9},{"type":"Feature","geometry":{"type":"Point","coordinates":[14.210635430750521,45.794594356286574]},"properties":{"FID":10,"OBJECTID":0,"Cave":"Postojnska jama","Station":"SŠ1 - POST 1","GK_X":438641,"GK_Y":72536,"Measuremen":"TM72","Author":"Prof. Stanka Šebela","Project":"RI-SI-EPOS","Sensor":"TM 72 extensometer","Period":"since 9.3.2020","Status":"In progress","Frequency":"1 per day","Biblio":" ","__id":10},"id":10},{"type":"Feature","geometry":{"type":"Point","coordinates":[14.207942281528732,45.79581757477443]},"properties":{"FID":11,"OBJECTID":0,"Cave":"Postojnska jama","Station":"SŠ2 - POST 2","GK_X":438433,"GK_Y":72674,"Measuremen":"TM72","Author":"Prof. Stanka Šebela","Project":"RI-SI-EPOS","Sensor":"TM 72 extensometer","Period":"since 9.3.2020","Status":"In progress","Frequency":"1 per day","Biblio":" ","__id":11},"id":11},{"type":"Feature","geometry":{"type":"Point","coordinates":[14.209685911495207,45.79265268450526]},"properties":{"FID":12,"OBJECTID":0,"Cave":"Postojnska jama","Station":"SŠ3 - POST 3","GK_X":438565,"GK_Y":72321,"Measuremen":"TM72","Author":"Prof. Stanka Šebela","Project":"RI-SI-EPOS","Sensor":"TM 72 extensometer","Period":"since 9.3.2020","Status":"In progress","Frequency":"1 per day","Biblio":" ","__id":12},"id":12},{"type":"Feature","geometry":{"type":"Point","coordinates":[14.210900433759337,45.79226496839211]},"properties":{"FID":13,"OBJECTID":0,"Cave":"Postojnska jama","Station":"SŠ4 - POST 4","GK_X":438659,"GK_Y":72277,"Measuremen":"TM72","Author":"Prof. Stanka Šebela","Project":"RI-SI-EPOS","Sensor":"TM 72 extensometer","Period":"since 9.3.2020","Status":"In progress","Frequency":"1 per day","Biblio":" ","__id":13},"id":13},{"type":"Feature","geometry":{"type":"Point","coordinates":[14.208825325453022,45.79164799938779]},"properties":{"FID":14,"OBJECTID":11,"Cave":"Postojnska jama","Station":"SŠ5","GK_X":438497,"GK_Y":72210,"Measuremen":"Seisms","Author":"Prof. Giovanni Costa (Stanka Šebela)","Project":"EPOS","Sensor":" ","Period":" ","Status":"In progress","Frequency":" ","Biblio":"ŽIVČIČ et al., 2014; http://ojs.zrc-sazu.si/carsologica/article/view/569/713, doi: 10.3986/ac.v43i1.569; Šebela et al.2020, doi: 10.5194/egusphere-egu2020-4657.","__id":14},"id":14},{"type":"Feature","geometry":{"type":"Point","coordinates":[13.72527208947961,46.25385808273641]},"properties":{"FID":15,"OBJECTID":12,"Cave":"Pološka jama","Station":"PLJ","GK_X":401730,"GK_Y":124060,"Measuremen":"TM71","Author":"Prof. Stanka Šebela","Project":"EPOS","Sensor":"TM 71 extensometer","Period":"Since 19.06.2008","Status":"In progress","Frequency":"4 per year","Biblio":" ","__id":15},"id":15},{"type":"Feature","geometry":{"type":"Point","coordinates":[14.177970890389368,46.01127168685593]},"properties":{"FID":16,"OBJECTID":13,"Cave":"Jama pri Sv. Treh Kraljih","Station":"RTK","GK_X":436350,"GK_Y":96640,"Measuremen":"TM71","Author":"Prof. Stanka Šebela","Project":"EPOS","Sensor":"TM 71 extensometer","Period":"Since 24.11.2011","Status":"In progress","Frequency":"1 per month","Biblio":"BRIESTENSK├Ł et al.,2015, doi: 10.1515/geoca-2015-0035","__id":16},"id":16},{"type":"Feature","geometry":{"type":"Point","coordinates":[15.43905373401016,45.83824155652845]},"properties":{"FID":17,"OBJECTID":14,"Cave":"Kostanjeviska jama","Station":"KJ","GK_X":534102,"GK_Y":77177,"Measuremen":"TM71","Author":"Prof. Stanka Šebela","Project":"EPOS","Sensor":"TM 71 extensometer","Period":"17.06.2008 - 11.3.2020","Status":" ","Frequency":"1 per month","Biblio":"Šebela, 2015: https://plus.si.cobiss.net/opac7/bib/38083629","__id":17},"id":17},{"type":"Feature","geometry":{"type":"Point","coordinates":[15.43905373401016,45.83824155652845]},"properties":{"FID":18,"OBJECTID":0,"Cave":"Kostanjeviska jama","Station":"KJ","GK_X":534102,"GK_Y":77177,"Measuremen":"TM72","Author":"Prof. Stanka Šebela","Project":"RI-SI-EPOS","Sensor":"TM 72 extensometer","Period":"Since 11.3.2020","Status":"In progress","Frequency":"1 per day","Biblio":" ","__id":18},"id":18},{"type":"Feature","geometry":{"type":"Point","coordinates":[15.43905373401016,45.83824155652845]},"properties":{"FID":19,"OBJECTID":0,"Cave":"Kostanjeviska jama","Station":"Kostanjeviška 1","GK_X":534102,"GK_Y":77177,"Measuremen":"Tair","Author":"Prof. Stanka Šebela","Project":"EPOS","Sensor":"diver Van Essen","Period":"Since 16.1.2020","Status":"In progress","Frequency":"1 hour","Biblio":"Šebela 2021, https://doi.org/10.1016/B978-0-12-822954-5.00001-9","__id":19},"id":19},{"type":"Feature","geometry":{"type":"Point","coordinates":[14.211831088393685,45.79975824764673]},"properties":{"FID":20,"OBJECTID":15,"Cave":"Črna jama","Station":"CJ1","GK_X":438739.537,"GK_Y":73108.9675,"Measuremen":"Tair","Author":"Prof. Stanka Šebela","Project":"Postojnska jama monitoring","Sensor":"diver Van Essen","Period":"since 16.1.2014  14:00:00","Status":"In progress","Frequency":"1 hour","Biblio":"Šebela&Turk, 2018, doi: 10.1007/s00704-017-2304-5","__id":20},"id":20},{"type":"Feature","geometry":{"type":"Point","coordinates":[14.21122382726162,45.79984655260341]},"properties":{"FID":21,"OBJECTID":16,"Cave":"Črna jama","Station":"CJ2","GK_X":438692.4517,"GK_Y":73119.214,"Measuremen":"Tair","Author":"Prof. Stanka Šebela","Project":"Postojnska jama monitoring","Sensor":"diver Van Essen","Period":"since 16.1.2014  14:00:00","Status":"In progress","Frequency":"1 hour","Biblio":"Šebela&Turk, 2018, doi: 10.1007/s00704-017-2304-5","__id":21},"id":21},{"type":"Feature","geometry":{"type":"Point","coordinates":[14.212012548081077,45.800469067263286]},"properties":{"FID":22,"OBJECTID":17,"Cave":"Črna jama","Station":"CJ3","GK_X":438754.4188,"GK_Y":73187.7682,"Measuremen":"Tair","Author":"Prof. Stanka Šebela","Project":"Postojnska jama monitoring","Sensor":"diver Van Essen","Period":"since 16.1.2014  14:00:00","Status":"In progress","Frequency":"1 hour","Biblio":"Šebela&Turk, 2018, doi: 10.1007/s00704-017-2304-5","__id":22},"id":22},{"type":"Feature","geometry":{"type":"Point","coordinates":[14.211458287550775,45.80200277843264]},"properties":{"FID":23,"OBJECTID":18,"Cave":"Črna jama-Pivka jama","Station":"CJ4","GK_X":438713.0757,"GK_Y":73358.6274,"Measuremen":"Tair","Author":"Prof. Stanka Šebela","Project":"Postojnska jama monitoring","Sensor":"diver Van Essen","Period":"since 16.1.2014  14:00:00","Status":"In progress","Frequency":"1 hour","Biblio":"Šebela&Turk, 2018, doi: 10.1007/s00704-017-2304-5","__id":23},"id":23},{"type":"Feature","geometry":{"type":"Point","coordinates":[13.993891715628731,45.66811565768713]},"properties":{"FID":24,"OBJECTID":19,"Cave":"Škocjan Caves","Station":"PŠJ - TJ","GK_X":421616.3022,"GK_Y":58670.6791,"Measuremen":"Tair","Author":"Prof. Stanka Šebela","Project":"ARRS L7-8268","Sensor":"diver Van Essen","Period":"since 19.12.2017  11:00:00","Status":"In progress","Frequency":"1 hour","Biblio":"Šebela 2021, https://doi.org/10.1016/B978-0-12-822954-5.00001-9","__id":24},"id":24},{"type":"Feature","geometry":{"type":"Point","coordinates":[13.990375709606688,45.662205662001035]},"properties":{"FID":25,"OBJECTID":20,"Cave":"Škocjan Caves","Station":"PŠJ-Tunel1","GK_X":421334.1307,"GK_Y":58017.4472,"Measuremen":"Tair","Author":"Prof. Stanka Šebela","Project":"ARRS L7-8268","Sensor":"diver Van Essen","Period":"since 19.12.2017  11:00:00","Status":"In progress","Frequency":"1 hour","Biblio":"Šebela 2021, https://doi.org/10.1016/B978-0-12-822954-5.00001-9","__id":25},"id":25},{"type":"Feature","geometry":{"type":"Point","coordinates":[13.991439314903085,45.6612532493211]},"properties":{"FID":26,"OBJECTID":21,"Cave":"Škocjan Caves","Station":"PŠJ-Goba/Šotor","GK_X":421415.6225,"GK_Y":57910.5553,"Measuremen":"Tair","Author":"Prof. Stanka Šebela","Project":"ARRS L7-8268","Sensor":"diver Van Essen","Period":"since 5.2.2018  12:00:00\r\n","Status":"In progress","Frequency":"1 hour","Biblio":"Šebela 2021, https://doi.org/10.1016/B978-0-12-822954-5.00001-9","__id":26},"id":26},{"type":"Feature","geometry":{"type":"Point","coordinates":[14.641648002386352,45.913592790594464]},"properties":{"FID":27,"OBJECTID":22,"Cave":"Županova jama","Station":"ZJ1","GK_X":472203.8296,"GK_Y":85519.1904,"Measuremen":"Tair","Author":"Prof. Stanka Šebela","Project":"EPOS","Sensor":"\r\n\r\n","Period":"since 5.10.2017  10:00:00","Status":"In progress","Frequency":"30 minutes","Biblio":" ","__id":27},"id":27},{"type":"Feature","geometry":{"type":"Point","coordinates":[14.643932418153868,45.91314091661774]},"properties":{"FID":28,"OBJECTID":23,"Cave":"Županova jama","Station":"ZJ4","GK_X":472380.8362,"GK_Y":85468.1257,"Measuremen":"Tair outside","Author":"Prof. Stanka Šebela","Project":"EPOS","Sensor":" ","Period":"since 27 September 2018","Status":"In progress","Frequency":"30 minutes","Biblio":" ","__id":28},"id":28},{"type":"Feature","geometry":{"type":"Point","coordinates":[14.641648002386352,45.913592790594464]},"properties":{"FID":29,"OBJECTID":24,"Cave":"Županova jama","Station":"ZJ2","GK_X":472203.8296,"GK_Y":85519.1904,"Measuremen":"TM71","Author":"Prof. Stanka Šebela","Project":"EPOS","Sensor":"TM 71 extensometer","Period":"since 11.11.2011","Status":"In progress","Frequency":"1 per month and 1 per day","Biblio":"Šebela, 2015: https://plus.si.cobiss.net/opac7/bib/38083629","__id":29},"id":29},{"type":"Feature","geometry":{"type":"Point","coordinates":[14.641648002386352,45.913592790594464]},"properties":{"FID":30,"OBJECTID":26,"Cave":"Županova jama","Station":"ZJ3","GK_X":472203.8296,"GK_Y":85519.1904,"Measuremen":"Radon","Author":"Prof. Stanka Šebela","Project":"EPOS","Sensor":"radim (Rn)","Period":"since 23.3.2017","Status":"In progress","Frequency":"30 minutes\r\n30 minutes\r\n30 minutes\r\n","Biblio":"AMBROSINO, F., THINOVÁ, L., BRIESTENSKÝ, Miloš, ŠEBELA, Stanka, SABBARESE, C. 2020, doi: 10.1007/s40328-020-00298-1.","__id":30},"id":30},{"type":"Feature","geometry":{"type":"Point","coordinates":[13.991439314903085,45.6612532493211]},"properties":{"FID":31,"OBJECTID":27,"Cave":"Škocjan Caves","Station":"PŠJ-Goba/Šotor","GK_X":421415.6225,"GK_Y":57910.5553,"Measuremen":"CO2","Author":"Prof. Stanka Šebela","Project":"ARRS L7-8268","Sensor":"Vaisala","Period":"5.2.2018  12:00:00 - 5.1.2021  10:00:00","Status":" ","Frequency":"1 hour","Biblio":" ","__id":31},"id":31},{"type":"Feature","geometry":{"type":"Point","coordinates":[14.209685911495207,45.79265268450526]},"properties":{"FID":32,"OBJECTID":28,"Cave":"Postojnska jama","Station":"SŠ3a -- Postojna 2","GK_X":438565,"GK_Y":72321,"Measuremen":"Tair","Author":"Prof. Stanka Šebela","Project":"Postojnska jama","Sensor":"diver Van Essen","Period":"since 7.1.2009  8:00:00","Status":"In progress","Frequency":"1 hour","Biblio":"Šebela&Turk, 2018, doi: 10.1007/s00704-017-2304-5; Šebela 2021, https://doi.org/10.1016/B978-0-12-822954-5.00001-9","__id":32},"id":32},{"type":"Feature","geometry":{"type":"Point","coordinates":[14.209918575153795,45.79202632433849]},"properties":{"FID":33,"OBJECTID":29,"Cave":"Postojnska jama","Station":"SŠ3b -- Postojna 3","GK_X":438582.3927,"GK_Y":72251.1806,"Measuremen":"Tair","Author":"Prof. Stanka Šebela","Project":"Postojnska jama","Sensor":"diver Van Essen","Period":"since 29.4.2009  14:00:00","Status":"In progress","Frequency":"1 hour","Biblio":"Šebela&Turk, 2018, doi: 10.1007/s00704-017-2304-5; Šebela 2021, https://doi.org/10.1016/B978-0-12-822954-5.00001-9","__id":33},"id":33},{"type":"Feature","geometry":{"type":"Point","coordinates":[14.2107441268999,45.79453798612384]},"properties":{"FID":34,"OBJECTID":31,"Cave":"Postojnska jama","Station":"SŠ1a -- Postojna 1","GK_X":438649.3606,"GK_Y":72529.659,"Measuremen":"Tair","Author":"Prof. Stanka Šebela","Project":"Postojnska jama","Sensor":"diver Van Essen","Period":"since 10.3.2009  14:00:00","Status":"In progress","Frequency":"1 hour","Biblio":"Šebela&Turk, 2018, doi: 10.1007/s00704-017-2304-5; Šebela 2021, https://doi.org/10.1016/B978-0-12-822954-5.00001-9","__id":34},"id":34},{"type":"Feature","geometry":{"type":"Point","coordinates":[14.212431163003478,45.78932788425486]},"properties":{"FID":35,"OBJECTID":32,"Cave":"Postojnska jama","Station":"Razpotje","GK_X":438774.7734,"GK_Y":71949.4266,"Measuremen":"Tair","Author":"Prof. Stanka Šebela","Project":"Postojnska jama","Sensor":"diver Van Essen","Period":"since 19.3.2015  12:00:00","Status":"In progress","Frequency":"1 hour","Biblio":"Pipan et al., 2019; doi: 10.1007/s10113-018-1349-z;  Šebela 2021, https://doi.org/10.1016/B978-0-12-822954-5.00001-9","__id":35},"id":35},{"type":"Feature","geometry":{"type":"Point","coordinates":[14.209685911495207,45.79265268450526]},"properties":{"FID":36,"OBJECTID":0,"Cave":"Postojnska jama","Station":" Postojna 2","GK_X":438565,"GK_Y":72321,"Measuremen":"CO2","Author":"Prof. Stanka Šebela","Project":"Postojnska jama","Sensor":"Vaisala","Period":"since 23.10.2019  11:00:00","Status":"In progress","Frequency":"1 hour","Biblio":"Šebela 2021, https://doi.org/10.1016/B978-0-12-822954-5.00001-9","__id":36},"id":36},{"type":"Feature","geometry":{"type":"Point","coordinates":[14.131128239898954,45.81593575917941]},"properties":{"FID":37,"OBJECTID":33,"Cave":"Predjama","Station":"Konjski hlev","GK_X":432486.4974,"GK_Y":74971.6592,"Measuremen":"Tair","Author":"Prof. Stanka Šebela","Project":"Postojnska Jama","Sensor":"diver Van Essen","Period":"since 6.8.2009  12:00:00","Status":"In progress","Frequency":"1 hour","Biblio":"Šebela & Turk, 2014,  doi: 10.1016/j.tmp.2014.01.002. [COBISS.SI-ID 36637997; Šebela 2021, https://doi.org/10.1016/B978-0-12-822954-5.00001-9","__id":37},"id":37},{"type":"Feature","geometry":{"type":"Point","coordinates":[14.131812756145454,45.816520528767384]},"properties":{"FID":38,"OBJECTID":34,"Cave":"Predjama","Station":"Velika dvorana","GK_X":432540.3945,"GK_Y":75036.0878,"Measuremen":"Tair","Author":"Prof. Stanka Šebela","Project":"Postojnska jama","Sensor":"diver Van Essen","Period":"since 6.8.2009  12:00:00","Status":"In progress","Frequency":"1 hour","Biblio":"Šebela & Turk, 2014,  doi: 10.1016/j.tmp.2014.01.002. [COBISS.SI-ID 36637997; Šebela 2021, https://doi.org/10.1016/B978-0-12-822954-5.00001-9","__id":38},"id":38},{"type":"Feature","geometry":{"type":"Point","coordinates":[14.217691697307279,45.77575728554001]},"properties":{"FID":39,"OBJECTID":35,"Cave":"IZRK ZRC SAZU, Postojna","Station":"POST","GK_X":439169,"GK_Y":70437.4,"Measuremen":"Seisms","Author":"Prof. Stanka Šebela","Project":"RI-SI-EPOS","Sensor":"temporal seismic station, Kinemetrics","Period":"since 22.5.2020","Status":"In progress","Frequency":" ","Biblio":"ČARMAN, Martina, et al. 2021. http://fgg-web.fgg.uni-lj.si/sugg/referati/2021/SZGG_Zbornik_2021_E_publikacija.pdf. [C","__id":39},"id":39},{"type":"Feature","geometry":{"type":"Point","coordinates":[14.216392733406444,45.70138430294506]},"properties":{"FID":40,"OBJECTID":36,"Cave":"Muzej presihajočih jezer, Slovenska vas","Station":"MPJP","GK_X":438987,"GK_Y":62173.9,"Measuremen":"Seisms","Author":"Prof. Stanka Šebela","Project":"RI-SI-EPOS","Sensor":"temporal seismic station, Kinemetrics","Period":"since 15.7.2020","Status":"In progress","Frequency":" ","Biblio":"ČARMAN, Martina, et al. 2021. http://fgg-web.fgg.uni-lj.si/sugg/referati/2021/SZGG_Zbornik_2021_E_publikacija.pdf. [C","__id":40},"id":40},{"type":"Feature","geometry":{"type":"Point","coordinates":[14.278150112559091,45.50088694822985]},"properties":{"FID":41,"OBJECTID":37,"Cave":"OŠ Jelšane, Jelšane","Station":"JLSP","GK_X":443595,"GK_Y":39849.4,"Measuremen":"Seisms","Author":"Prof. Stanka Šebela","Project":"RI-SI-EPOS","Sensor":"temporal seismic station, Kinemetrics","Period":"since 14.7.2020","Status":"In progress","Frequency":" ","Biblio":"ČARMAN, Martina, et al. 2021. http://fgg-web.fgg.uni-lj.si/sugg/referati/2021/SZGG_Zbornik_2021_E_publikacija.pdf. [C","__id":41},"id":41},{"type":"Feature","geometry":{"type":"Point","coordinates":[14.377795735450048,45.629426322475005]},"properties":{"FID":42,"OBJECTID":38,"Cave":"Mašun 10","Station":"MASE","GK_X":451492,"GK_Y":54067.5,"Measuremen":"Seisms","Author":"Prof. Stanka Šebela","Project":"RI-SI-EPOS","Sensor":"temporal seismic station, Kinemetrics","Period":"since 13.8.2020","Status":"In progress","Frequency":" ","Biblio":"ČARMAN, Martina, et al. 2021. http://fgg-web.fgg.uni-lj.si/sugg/referati/2021/SZGG_Zbornik_2021_E_publikacija.pdf. [C","__id":42},"id":42},{"type":"Feature","geometry":{"type":"Point","coordinates":[14.473674722354696,45.683004021084685]},"properties":{"FID":43,"OBJECTID":39,"Cave":"Grad Snežnik","Station":"GSNE","GK_X":459006,"GK_Y":59967.5,"Measuremen":"Seisms","Author":"Prof. Stanka Šebela","Project":"RI-SI-EPOS","Sensor":"temporal seismic station, Kinemetrics","Period":"since 26.8.2020","Status":"In progress","Frequency":" ","Biblio":"ČARMAN, Martina, et al. 2021. http://fgg-web.fgg.uni-lj.si/sugg/referati/2021/SZGG_Zbornik_2021_E_publikacija.pdf. [C","__id":43},"id":43},{"type":"Feature","geometry":{"type":"Point","coordinates":[14.249052782191178,45.56402267527494]},"properties":{"FID":44,"OBJECTID":40,"Cave":"Občina Ilirska Bistrica","Station":"ILBA","GK_X":441387,"GK_Y":46885.8,"Measuremen":"Seisms","Author":"Prof. Stanka Šebela","Project":"RI-SI-EPOS","Sensor":"part of very broad band seismic station, Nanometrics","Period":"since 1.9.2020","Status":"In progress","Frequency":" ","Biblio":"ČARMAN, Martina, et al. 2021. http://fgg-web.fgg.uni-lj.si/sugg/referati/2021/SZGG_Zbornik_2021_E_publikacija.pdf. [C","__id":44},"id":44},{"type":"Feature","geometry":{"type":"Point","coordinates":[14.209685911495207,45.79265268450526]},"properties":{"FID":45,"OBJECTID":42,"Cave":"Postojnska jama","Station":"near Postojna 2","GK_X":438565,"GK_Y":72321,"Measuremen":"methane","Author":"Prof. Stanka Šebela","Project":"RI-SI-EPOS","Sensor":"Opsis","Period":"since 9.9.2020","Status":"In progress","Frequency":"15 minutes","Biblio":"ŠEBELA, Stanka. 2021. http://fgg-web.fgg.uni-lj.si/sugg/referati/2021/SZGG_Zbornik_2021_E_publikacija.pdf. ","__id":45},"id":45},{"type":"Feature","geometry":{"type":"Point","coordinates":[14.217691697307279,45.77575728554001]},"properties":{"FID":46,"OBJECTID":43,"Cave":"IZRK ZRC SAZU, Postojna","Station":" ","GK_X":439169,"GK_Y":70437.4,"Measuremen":"gravimetry","Author":"Prof Franci Gabrovšek","Project":"RI-SI-EPOS","Sensor":"Scintrex CG-6","Period":"since 10.4.2020","Status":" ","Frequency":" ","Biblio":"ŠEBELA, Stanka. 2021. http://fgg-web.fgg.uni-lj.si/sugg/referati/2021/SZGG_Zbornik_2021_E_publikacija.pdf. ","__id":46},"id":46},{"type":"Feature","geometry":{"type":"Point","coordinates":[14.217691697307279,45.77575728554001]},"properties":{"FID":47,"OBJECTID":44,"Cave":"IZRK ZRC SAZU, Postojna","Station":" ","GK_X":439169,"GK_Y":70437.4,"Measuremen":"drone","Author":"Astrid Švara","Project":"RI-SI-EPOS","Sensor":"Mavic","Period":"since 4.6.2020","Status":" ","Frequency":" ","Biblio":"ŠEBELA, Stanka. 2021. http://fgg-web.fgg.uni-lj.si/sugg/referati/2021/SZGG_Zbornik_2021_E_publikacija.pdf. ","__id":47},"id":47},{"type":"Feature","geometry":{"type":"Point","coordinates":[14.217691697307279,45.77575728554001]},"properties":{"FID":48,"OBJECTID":45,"Cave":"IZRK ZRC SAZU, Postojna","Station":" ","GK_X":439169,"GK_Y":70437.4,"Measuremen":"3D laser scanner","Author":"Prof. Stanka Šebela","Project":"RI-SI-EPOS","Sensor":"Riegl VZ 2000i","Period":"since 24.1.2020","Status":" ","Frequency":" ","Biblio":"ŠEBELA, Stanka. 2021. http://fgg-web.fgg.uni-lj.si/sugg/referati/2021/SZGG_Zbornik_2021_E_publikacija.pdf. ","__id":48},"id":48},{"type":"Feature","geometry":{"type":"Point","coordinates":[14.217691697307279,45.77575728554001]},"properties":{"FID":49,"OBJECTID":46,"Cave":"IZRK ZRC SAZU, Postojna","Station":" ","GK_X":439169,"GK_Y":70437.4,"Measuremen":"GNSS antenna","Author":"Prof Franci Gabrovšek","Project":"RI-SI-EPOS","Sensor":"Leica GS18T","Period":"since 20.2.2020","Status":" ","Frequency":" ","Biblio":"ŠEBELA, Stanka. 2021. http://fgg-web.fgg.uni-lj.si/sugg/referati/2021/SZGG_Zbornik_2021_E_publikacija.pdf. Šebela 2021, https://doi.org/10.1016/B978-0-12-822954-5.00001-9 ,  ","__id":49},"id":49}]}
