{"type":"FeatureCollection","features":[{"type":"Feature","geometry":{"type":"MultiPolygon","coordinates":[]},"properties":{"FID":0,"OBJECTID":1,"karb_klas":"limestone and dolomite","Shape_Leng":1332396.20591,"Shape_Area":385477596.343,"__id":0},"id":0},{"type":"Feature","geometry":{"type":"MultiPolygon","coordinates":[]},"properties":{"FID":1,"OBJECTID":2,"karb_klas":"limestone","Shape_Leng":9990361.20791,"Shape_Area":4994774196.29,"__id":1},"id":1},{"type":"Feature","geometry":{"type":"MultiPolygon","coordinates":[]},"properties":{"FID":2,"OBJECTID":3,"karb_klas":"dolomite","Shape_Leng":8829548.87787,"Shape_Area":2504631554.76,"__id":2},"id":2},{"type":"Feature","geometry":{"type":"MultiPolygon","coordinates":[]},"properties":{"FID":3,"OBJECTID":4,"karb_klas":"clastic carbonate rocks","Shape_Leng":3847396.64529,"Shape_Area":741515560.075,"__id":3},"id":3}]}
